{
    "links": {
        "self": "http://www.neowsapp.com/rest/v1/neo/3789370?api_key=iIulBulltgU6a56xZRHN4H3l9WmuAYTsLGpBGhQ2"
    },
    "id": "3789370",
    "neo_reference_id": "3789370",
    "name": "(2017 VC13)",
    "designation": "2017 VC13",
    "nasa_jpl_url": "http://ssd.jpl.nasa.gov/sbdb.cgi?sstr=3789370",
    "absolute_magnitude_h": 25.3,
    "estimated_diameter": {
        "kilometers": {
            "estimated_diameter_min": 0.0231502122,
            "estimated_diameter_max": 0.0517654482
        },
        "meters": {
            "estimated_diameter_min": 23.150212221,
            "estimated_diameter_max": 51.7654482198
        },
        "miles": {
            "estimated_diameter_min": 0.0143848705,
            "estimated_diameter_max": 0.0321655483
        },
        "feet": {
            "estimated_diameter_min": 75.9521422633,
            "estimated_diameter_max": 169.8341531374
        }
    },
    "is_potentially_hazardous_asteroid": false,
    "close_approach_data": [
        {
            "close_approach_date": "1922-09-03",
            "close_approach_date_full": "1922-Sep-03 17:43",
            "epoch_date_close_approach": -1493533020000,
            "relative_velocity": {
                "kilometers_per_second": "4.565080509",
                "kilometers_per_hour": "16434.2898325675",
                "miles_per_hour": "10211.6285906862"
            },
            "miss_distance": {
                "astronomical": "1.450866561",
                "lunar": "564.387092229",
                "kilometers": "217046547.17982507",
                "miles": "134866470.576203166"
            },
            "orbiting_body": "Juptr"
        },
        {
            "close_approach_date": "2017-11-06",
            "close_approach_date_full": "2017-Nov-06 21:48",
            "epoch_date_close_approach": 1510004880000,
            "relative_velocity": {
                "kilometers_per_second": "7.6273606121",
                "kilometers_per_hour": "27458.498203431",
                "miles_per_hour": "17061.6429531263"
            },
            "miss_distance": {
                "astronomical": "0.0912481283",
                "lunar": "35.4955219087",
                "kilometers": "13650525.635166721",
                "miles": "8482043.3121179098"
            },
            "orbiting_body": "Earth"
        }
    ],
    "orbital_data": {
        "orbit_id": "2",
        "orbit_determination_date": "2017-11-21 06:21:44",
        "first_observation_date": "2017-11-13",
        "last_observation_date": "2017-11-21",
        "data_arc_in_days": 8,
        "observations_used": 15,
        "orbit_uncertainty": "8",
        "minimum_orbit_intersection": ".0709132",
        "jupiter_tisserand_invariant": "3.074",
        "epoch_osculation": "2458071.5",
        "eccentricity": ".6050640495657292",
        "semi_major_axis": "2.69610247684568",
        "inclination": "3.302416202056144",
        "ascending_node_longitude": "213.3970706115938",
        "orbital_period": "1616.973937410802",
        "perihelion_distance": "1.06478779416124",
        "perihelion_argument": "181.0267940520716",
        "aphelion_distance": "4.327417159530119",
        "perihelion_time": "2458057.935722444349",
        "mean_anomaly": "3.019924939454215",
        "mean_motion": ".2226380967997877",
        "equinox": "J2000",
        "orbit_class": {
            "orbit_class_type": "AMO",
            "orbit_class_description": "Near-Earth asteroid orbits similar to that of 1221 Amor",
            "orbit_class_range": "1.017 AU < q (perihelion) < 1.3 AU"
        }
    },
    "is_sentry_object": false
}